start=new Date('2022-10-31T00:00:00.000Z').valueOf();
sats=[{"OBJECT_ID":"2022-017U","DECAY_DATE":null,"BSTAR":"-0.00005241600000","SEMIMAJOR_AXIS":"6917.880","EPOCH":"2022-10-30T16:27:04.170816","CLASSIFICATION_TYPE":"U","OBJECT_TYPE":"PAYLOAD","NORAD_CAT_ID":"51786","APOAPSIS":"540.901","SITE":"AFWTR","MEAN_MOTION":"15.08840044","ELEMENT_SET_NO":"999","LAUNCH_DATE":"2022-02-25","TIME_SYSTEM":"UTC","REV_AT_EPOCH":"3719","OBJECT_NAME":"STARLINK-3638","RA_OF_ASC_NODE":"92.8604","FILE":"3637924","GP_ID":"216529324","TLE_LINE2":"2 51786  53.2170  92.8604 0001671  52.7685 307.3460 15.08840044 37191","COUNTRY_CODE":"US","TLE_LINE1":"1 51786U 22017U   22303.68546494 -.00001122  00000-0 -52416-4 0  9995","EPHEMERIS_TYPE":"0","ARG_OF_PERICENTER":"52.7685","MEAN_ELEMENT_THEORY":"SGP4","PERIOD":"95.438","INCLINATION":"53.2170","MEAN_ANOMALY":"307.3460","CENTER_NAME":"EARTH","REF_FRAME":"TEME","ECCENTRICITY":"0.00016710","MEAN_MOTION_DOT":"-0.00001122","MEAN_MOTION_DDOT":"0.0000000000000","RCS_SIZE":"LARGE","PERIAPSIS":"538.589"},{"TIME_SYSTEM":"UTC","LAUNCH_DATE":"2022-02-25","MEAN_MOTION":"15.08834904","SITE":"AFWTR","ELEMENT_SET_NO":"999","OBJECT_NAME":"STARLINK-3619","REV_AT_EPOCH":"3721","NORAD_CAT_ID":"51787","APOAPSIS":"541.236","EPOCH":"2022-10-30T19:59:02.652576","SEMIMAJOR_AXIS":"6917.896","OBJECT_TYPE":"PAYLOAD","CLASSIFICATION_TYPE":"U","DECAY_DATE":null,"OBJECT_ID":"2022-017V","BSTAR":"-0.00003426700000","REF_FRAME":"TEME","RCS_SIZE":"LARGE","PERIAPSIS":"538.286","MEAN_MOTION_DDOT":"0.0000000000000","MEAN_MOTION_DOT":"-0.00000834","ECCENTRICITY":"0.00021320","MEAN_ELEMENT_THEORY":"SGP4","ARG_OF_PERICENTER":"51.2845","EPHEMERIS_TYPE":"0","CENTER_NAME":"EARTH","INCLINATION":"53.2183","PERIOD":"95.438","MEAN_ANOMALY":"308.8338","COUNTRY_CODE":"US","TLE_LINE2":"2 51787  53.2183  92.2047 0002132  51.2845 308.8338 15.08834904 37217","GP_ID":"216530074","FILE":"3637924","TLE_LINE1":"1 51787U 22017V   22303.83266959 -.00000834  00000-0 -34267-4 0  9991","RA_OF_ASC_NODE":"92.2047"},{"RA_OF_ASC_NODE":"92.9268","FILE":"3637924","GP_ID":"216530820","COUNTRY_CODE":"US","TLE_LINE2":"2 51788  53.2165  92.9268 0001830  51.4652 308.6504 15.08856826 38831","TLE_LINE1":"1 51788U 22017W   22303.67442840  .00000437  00000-0  45539-4 0  9990","EPHEMERIS_TYPE":"0","ARG_OF_PERICENTER":"51.4652","MEAN_ELEMENT_THEORY":"SGP4","PERIOD":"95.436","INCLINATION":"53.2165","MEAN_ANOMALY":"308.6504","CENTER_NAME":"EARTH","REF_FRAME":"TEME","ECCENTRICITY":"0.00018300","MEAN_MOTION_DDOT":"0.0000000000000","MEAN_MOTION_DOT":"0.00000437","PERIAPSIS":"538.428","RCS_SIZE":"LARGE","OBJECT_ID":"2022-017W","DECAY_DATE":null,"BSTAR":"0.00004553900000","SEMIMAJOR_AXIS":"6917.829","EPOCH":"2022-10-30T16:11:10.613760","CLASSIFICATION_TYPE":"U","OBJECT_TYPE":"PAYLOAD","NORAD_CAT_ID":"51788","APOAPSIS":"540.960","SITE":"AFWTR","ELEMENT_SET_NO":"999","MEAN_MOTION":"15.08856826","LAUNCH_DATE":"2022-02-25","TIME_SYSTEM":"UTC","REV_AT_EPOCH":"3883","OBJECT_NAME":"STARLINK-3641"},{"APOAPSIS":"541.286","NORAD_CAT_ID":"51789","OBJECT_NAME":"STARLINK-3639","REV_AT_EPOCH":"3719","LAUNCH_DATE":"2022-02-25","TIME_SYSTEM":"UTC","ELEMENT_SET_NO":"999","SITE":"AFWTR","MEAN_MOTION":"15.08836819","BSTAR":"-0.00008422200000","DECAY_DATE":null,"OBJECT_ID":"2022-017X","CLASSIFICATION_TYPE":"U","OBJECT_TYPE":"PAYLOAD","EPOCH":"2022-10-30T16:32:22.594560","SEMIMAJOR_AXIS":"6917.890","CENTER_NAME":"EARTH","MEAN_ANOMALY":"317.4923","PERIOD":"95.438","INCLINATION":"53.2168","MEAN_ELEMENT_THEORY":"SGP4","EPHEMERIS_TYPE":"0","ARG_OF_PERICENTER":"42.6240","MEAN_MOTION_DDOT":"0.0000000000000","MEAN_MOTION_DOT":"-0.00001628","PERIAPSIS":"538.224","RCS_SIZE":"LARGE","ECCENTRICITY":"0.00022130","REF_FRAME":"TEME","RA_OF_ASC_NODE":"92.8499","TLE_LINE1":"1 51789U 22017X   22303.68915040 -.00001628  00000-0 -84222-4 0  9996","GP_ID":"216531064","COUNTRY_CODE":"US","TLE_LINE2":"2 51789  53.2168  92.8499 0002213  42.6240 317.4923 15.08836819 37192","FILE":"3637924"},{"SEMIMAJOR_AXIS":"6917.879","EPOCH":"2022-10-30T14:30:29.997504","CLASSIFICATION_TYPE":"U","OBJECT_TYPE":"PAYLOAD","OBJECT_ID":"2022-017Y","DECAY_DATE":null,"BSTAR":"0.00001356500000","ELEMENT_SET_NO":"999","SITE":"AFWTR","MEAN_MOTION":"15.08840430","LAUNCH_DATE":"2022-02-25","TIME_SYSTEM":"UTC","REV_AT_EPOCH":"3887","OBJECT_NAME":"STARLINK-3631","NORAD_CAT_ID":"51790","APOAPSIS":"541.008","FILE":"3637924","GP_ID":"216529824","COUNTRY_CODE":"US","TLE_LINE2":"2 51790  53.2175  93.2413 0001827  55.4781 304.6384 15.08840430 38874","TLE_LINE1":"1 51790U 22017Y   22303.60451386 -.00000072  00000-0  13565-4 0  9991","RA_OF_ASC_NODE":"93.2413","REF_FRAME":"TEME","ECCENTRICITY":"0.00018270","MEAN_MOTION_DDOT":"0.0000000000000","MEAN_MOTION_DOT":"-0.00000072","RCS_SIZE":"LARGE","PERIAPSIS":"538.480","EPHEMERIS_TYPE":"0","ARG_OF_PERICENTER":"55.4781","MEAN_ELEMENT_THEORY":"SGP4","PERIOD":"95.438","INCLINATION":"53.2175","MEAN_ANOMALY":"304.6384","CENTER_NAME":"EARTH"},{"ECCENTRICITY":"0.00018280","PERIAPSIS":"538.474","RCS_SIZE":"LARGE","MEAN_MOTION_DDOT":"0.0000000000000","MEAN_MOTION_DOT":"-0.00000001","REF_FRAME":"TEME","PERIOD":"95.437","MEAN_ANOMALY":"303.4209","INCLINATION":"53.2165","CENTER_NAME":"EARTH","ARG_OF_PERICENTER":"56.6958","EPHEMERIS_TYPE":"0","MEAN_ELEMENT_THEORY":"SGP4","TLE_LINE1":"1 51791U 22017Z   22303.68178334 -.00000001  00000-0  18048-4 0  9992","FILE":"3637924","TLE_LINE2":"2 51791  53.2165  92.8790 0001828  56.6958 303.4209 15.08842077 38835","COUNTRY_CODE":"US","GP_ID":"216529575","RA_OF_ASC_NODE":"92.8790","REV_AT_EPOCH":"3883","OBJECT_NAME":"STARLINK-3602","ELEMENT_SET_NO":"999","SITE":"AFWTR","MEAN_MOTION":"15.08842077","TIME_SYSTEM":"UTC","LAUNCH_DATE":"2022-02-25","APOAPSIS":"541.004","NORAD_CAT_ID":"51791","OBJECT_TYPE":"PAYLOAD","CLASSIFICATION_TYPE":"U","SEMIMAJOR_AXIS":"6917.874","EPOCH":"2022-10-30T16:21:46.080576","BSTAR":"0.00001804800000","OBJECT_ID":"2022-017Z","DECAY_DATE":null},{"EPHEMERIS_TYPE":"0","ARG_OF_PERICENTER":"63.7915","MEAN_ELEMENT_THEORY":"SGP4","MEAN_ANOMALY":"296.3203","PERIOD":"95.439","INCLINATION":"53.2167","CENTER_NAME":"EARTH","REF_FRAME":"TEME","ECCENTRICITY":"0.00012200","PERIAPSIS":"538.948","RCS_SIZE":"LARGE","MEAN_MOTION_DDOT":"0.0000000000000","MEAN_MOTION_DOT":"-0.00001540","RA_OF_ASC_NODE":"92.3822","FILE":"3637924","TLE_LINE2":"2 51792  53.2167  92.3822 0001220  63.7915 296.3203 15.08824847 38904","COUNTRY_CODE":"US","GP_ID":"216530321","TLE_LINE1":"1 51792U 22017AA  22303.79587453 -.00001540  00000-0 -78731-4 0  9996","NORAD_CAT_ID":"51792","APOAPSIS":"540.636","SITE":"AFWTR","MEAN_MOTION":"15.08824847","ELEMENT_SET_NO":"999","TIME_SYSTEM":"UTC","LAUNCH_DATE":"2022-02-25","REV_AT_EPOCH":"3890","OBJECT_NAME":"STARLINK-3626","OBJECT_ID":"2022-017AA","DECAY_DATE":null,"BSTAR":"-0.00007873100000","SEMIMAJOR_AXIS":"6917.927","EPOCH":"2022-10-30T19:06:03.559392","OBJECT_TYPE":"PAYLOAD","CLASSIFICATION_TYPE":"U"},{"SEMIMAJOR_AXIS":"6917.845","EPOCH":"2022-10-30T16:16:27.502176","CLASSIFICATION_TYPE":"U","OBJECT_TYPE":"PAYLOAD","OBJECT_ID":"2022-017AB","DECAY_DATE":null,"BSTAR":"0.00003517300000","SITE":"AFWTR","MEAN_MOTION":"15.08851695","ELEMENT_SET_NO":"999","LAUNCH_DATE":"2022-02-25","TIME_SYSTEM":"UTC","REV_AT_EPOCH":"3888","OBJECT_NAME":"STARLINK-3633","NORAD_CAT_ID":"51793","APOAPSIS":"540.789","FILE":"3637924","GP_ID":"216530565","COUNTRY_CODE":"US","TLE_LINE2":"2 51793  53.2190  92.9088 0001560  61.9515 298.1635 15.08851695 38881","TLE_LINE1":"1 51793U 22017AB  22303.67809609  .00000272  00000-0  35173-4 0  9996","RA_OF_ASC_NODE":"92.9088","REF_FRAME":"TEME","ECCENTRICITY":"0.00015600","MEAN_MOTION_DDOT":"0.0000000000000","MEAN_MOTION_DOT":"0.00000272","RCS_SIZE":"LARGE","PERIAPSIS":"538.630","EPHEMERIS_TYPE":"0","ARG_OF_PERICENTER":"61.9515","MEAN_ELEMENT_THEORY":"SGP4","PERIOD":"95.437","MEAN_ANOMALY":"298.1635","INCLINATION":"53.2190","CENTER_NAME":"EARTH"},{"FILE":"3637924","GP_ID":"216529325","COUNTRY_CODE":"US","TLE_LINE2":"2 51794  53.2153  92.4105 0001735  59.6060 300.5104 15.08851876 38856","TLE_LINE1":"1 51794U 22017AC  22303.78851052 -.00001146  00000-0 -53921-4 0  9992","RA_OF_ASC_NODE":"92.4105","REF_FRAME":"TEME","ECCENTRICITY":"0.00017350","MEAN_MOTION_DOT":"-0.00001146","MEAN_MOTION_DDOT":"0.0000000000000","RCS_SIZE":"LARGE","PERIAPSIS":"538.509","EPHEMERIS_TYPE":"0","ARG_OF_PERICENTER":"59.6060","MEAN_ELEMENT_THEORY":"SGP4","PERIOD":"95.437","INCLINATION":"53.2153","MEAN_ANOMALY":"300.5104","CENTER_NAME":"EARTH","SEMIMAJOR_AXIS":"6917.844","EPOCH":"2022-10-30T18:55:27.308928","CLASSIFICATION_TYPE":"U","OBJECT_TYPE":"PAYLOAD","OBJECT_ID":"2022-017AC","DECAY_DATE":null,"BSTAR":"-0.00005392100000","SITE":"AFWTR","MEAN_MOTION":"15.08851876","ELEMENT_SET_NO":"999","LAUNCH_DATE":"2022-02-25","TIME_SYSTEM":"UTC","REV_AT_EPOCH":"3885","OBJECT_NAME":"STARLINK-3573","NORAD_CAT_ID":"51794","APOAPSIS":"540.909"},{"RA_OF_ASC_NODE":"92.0973","TLE_LINE1":"1 51795U 22017AD  22303.85841962  .00000055  00000-0  21560-4 0  9990","GP_ID":"216530075","COUNTRY_CODE":"US","TLE_LINE2":"2 51795  53.2153  92.0973 0001520  55.1153 304.9982 15.08842765 38862","FILE":"3637924","CENTER_NAME":"EARTH","MEAN_ANOMALY":"304.9982","PERIOD":"95.437","INCLINATION":"53.2153","MEAN_ELEMENT_THEORY":"SGP4","ARG_OF_PERICENTER":"55.1153","EPHEMERIS_TYPE":"0","MEAN_MOTION_DDOT":"0.0000000000000","MEAN_MOTION_DOT":"0.00000055","RCS_SIZE":"LARGE","PERIAPSIS":"538.685","ECCENTRICITY":"0.00015200","REF_FRAME":"TEME","BSTAR":"0.00002156000000","DECAY_DATE":null,"OBJECT_ID":"2022-017AD","CLASSIFICATION_TYPE":"U","OBJECT_TYPE":"PAYLOAD","EPOCH":"2022-10-30T20:36:07.455168","SEMIMAJOR_AXIS":"6917.872","APOAPSIS":"540.788","NORAD_CAT_ID":"51795","OBJECT_NAME":"STARLINK-3586","REV_AT_EPOCH":"3886","LAUNCH_DATE":"2022-02-25","TIME_SYSTEM":"UTC","ELEMENT_SET_NO":"999","SITE":"AFWTR","MEAN_MOTION":"15.08842765"}];
